abbrev,name,street,city,state,zip
ACOM,Alabama College of Osteopathic Medicine,445 Health Sciences Blvd.,Dothan,AL,36303
MWU/AZCOM,Midwestern University/ Arizona College of Osteopathic Medicine,19555 N. 59th Ave.,Glendale,AZ,85308
ATSU-SOMA ,A.T. Still University - School of Osteopathic Medicine in Arizona,5850 E. Still Circle,Mesa,AZ,85206
TUCOM,Touro University California,College of Osteopathic Medicine,1310 Club Dr.,Vallejo,CA,94592
WesternU/COMP,Western University of Health Sciences College of Osteopathic Medicine of the Pacific,309 E. 2nd St.,Pomona,CA,91766-1854
RVUCOM,Rocky Vista University College of Osteopathic Medicine,8401 Chambers Road,Parker,CO,80134
LECOM-Bradenton,Lake Erie College of Osteopathic Medicine-Bradenton,5000 Lakewood Ranch Blvd.,Bradenton,FL,34211-4909
NSU-COM,Nova Southeastern University College of Osteopathic Medicine,3200 S. University Drive,Fort Lauderdale,FL,33328
GA-PCOM,Georgia Campus-Philadelphia College of Osteopathic Medicine,625 Old Peachtree Road,Suwanee,GA,30024
MWU/CCOM,Midwestern University/Chicago College of Osteopathic Medicine,555 31st St.,Downers Grove,IL,60515
MU-COM,Marian University College of Osteopathic Medicine,3200 Cold Spring Rd.,Indianapolis,IN,46222-1997
DMU-COM,Des Moines University College of Osteopathic Medicine,3200 Grand Ave.,Des Moines,IA,50312-4198
UP-KYCOM,University of Pikeville-Kentucky College of Osteopathic Medicine,147 Sycamore St.,Pikeville,KY,41501-1194
UNECOM,University of New England College of Osteopathic Medicine,11 Hills Beach Rd.,Biddeford,ME,04005
MSUCOM,Michigan State University College of Osteopathic Medicine,A-309 East Fee Hall,East Lansing,MI,48824
MSUCOM-DMC,Michigan State University College of Osteopathic Medicine - Detroit Medical Center,4707 Saint Antoine St.,Detroit,MI,48201
MSUCOM-MUC,Michigan State University College of Osteopathic Medicine - Macomb University Center,44575 Garfield Rd.,Clinton Twp.,MI,48038
WCUCOM,William Carey University College of Osteopathic Medicine,498 Tuscan Ave., WCU #207,Hattiesburg,MS  39401
ATSU-KCOM,A. T. Still University - Kirksville College of Osteopathic Medicine,800 W. Jefferson,Kirksville,MO,63501
KCUMB-COM,Kansas City University of Medicine and Biosciences' College of Osteopathic Medicine,1750 Independence Ave.,Kansas City,MO,64106
TUNCOM,Touro University Nevada College of Osteopathic Medicine,874 American Pacific,Henderson,NV,89014
RowanSOM,Rowan University School of Osteopathic Medicine,42 E. Laurel Road,Stratford,NJ,08084
NYITCOM,New York Institute of Technology College of Osteopathic Medicine,Northern Blvd.,Old Westbury,NY,11568-8000
TouroCOM,Touro College of Osteopathic Medicine in New York City,230 W. 125th St.,New York,NY,10027
CUSOM,Campbell University Jerry M. Wallace School of Osteopathic Medicine,P.O. Box 4280,Buies Creek,NC,27506
OU-HCOM,Ohio University Heritage College of Osteopathic Medicine,Grosvenor,Irvine Halls,Athens,OH,45701
OSU-COM,Oklahoma State University Center for Health Sciences College of Osteopathic Medicine,1111 W. 17th St.,Tulsa,OK,74107
WesternU/COMP-Northwest,Western University of Health Sciences College of Osteopathic Medicine of the Pacific-Northwest,200 Mullins Dr.,Lebanon,OR 97355
LECOM,Lake Erie College of Osteopathic Medicine,1858 W. Grandview Blvd.,Erie,PA,16509-1025
LECOM-Seton Hill,Lake Erie College of Osteopathic Medicine - Seton Hill,20 Seton Hill Drive,Greensburg,PA,15601
PCOM,Philadelphia College of Osteopathic Medicine,4170 City Ave.,Philadelphia,PA,19131-1610
VCOM - Carolinas,Edward Via College of Osteopathic Medicine-Carolinas Campus,350 Howard St.,Spartanburg,SC,29303
LMU-DCOM,Lincoln Memorial University-DeBusk College of Osteopathic Medicine,6965 Cumberland Gap Parkway,Harrogate,TN,37752
UNTHSC/TCOM,University of North Texas Health Science Center Texas College of Osteopathic Medicine,3500 Camp Bowie Blvd.,Fort Worth,TX,76107-2644
LUCOM,Liberty University College of Osteopathic Medicine,306 Liberty View Lane,Lynchburg,VA,24502
VCOM-Virginia,Edward Via College of Osteopathic Medicine - Virginia Campus,2265 Kraft Drive,Blacksburg,VA,24060
PNWU-COM,Pacific Northwest University of Health Sciences,College of Osteopathic Medicine,111 University Parkway,Suite 202,Yakima,WA,98901
WVSOM,West Virginia School of Osteopathic Medicine,400 N. Lee St.,Lewisburg,WV,24901
